[{"OBJECT_NAME":"GEESAT-2 10","OBJECT_ID":"2024-023K","EPOCH":"2026-03-09T22:53:20.332320","MEAN_MOTION":14.82907503,"ECCENTRICITY":0.0010254,"INCLINATION":49.993,"RA_OF_ASC_NODE":93.4916,"ARG_OF_PERICENTER":333.7702,"MEAN_ANOMALY":26.2716,"EPHEMERIS_TYPE":0,"CLASSIFICATION_TYPE":"U","NORAD_CAT_ID":58914,"ELEMENT_SET_NO":999,"REV_AT_EPOCH":11418,"BSTAR":0.00033687737,"MEAN_MOTION_DOT":2.537e-5,"MEAN_MOTION_DDOT":0},{"OBJECT_NAME":"SL-14 R\/B","OBJECT_ID":"1987-055B","EPOCH":"2026-03-09T21:07:11.149824","MEAN_MOTION":14.85629907,"ECCENTRICITY":0.00211346,"INCLINATION":82.503,"RA_OF_ASC_NODE":348.8521,"ARG_OF_PERICENTER":17.214,"MEAN_ANOMALY":342.9788,"EPHEMERIS_TYPE":0,"CLASSIFICATION_TYPE":"U","NORAD_CAT_ID":18153,"ELEMENT_SET_NO":999,"REV_AT_EPOCH":6996,"BSTAR":7.8350506e-5,"MEAN_MOTION_DOT":7.05e-6,"MEAN_MOTION_DDOT":0}]
